[{"OBJECT_NAME":"YAOGAN-36 02B","OBJECT_ID":"2022-133B","EPOCH":"2026-03-09T22:42:31.775904","MEAN_MOTION":15.30199518,"ECCENTRICITY":0.00056841,"INCLINATION":34.9983,"RA_OF_ASC_NODE":22.5268,"ARG_OF_PERICENTER":273.0351,"MEAN_ANOMALY":86.9715,"EPHEMERIS_TYPE":0,"CLASSIFICATION_TYPE":"U","NORAD_CAT_ID":54043,"ELEMENT_SET_NO":999,"REV_AT_EPOCH":18962,"BSTAR":0.00051218814,"MEAN_MOTION_DOT":0.00015352,"MEAN_MOTION_DDOT":0},{"OBJECT_NAME":"STARLINK-34318","OBJECT_ID":"2025-117V","EPOCH":"2026-03-09T05:27:06.724224","MEAN_MOTION":15.30199776,"ECCENTRICITY":0.0001077,"INCLINATION":53.1604,"RA_OF_ASC_NODE":41.8395,"ARG_OF_PERICENTER":80.9385,"MEAN_ANOMALY":279.1738,"EPHEMERIS_TYPE":0,"CLASSIFICATION_TYPE":"U","NORAD_CAT_ID":64222,"ELEMENT_SET_NO":999,"REV_AT_EPOCH":4445,"BSTAR":0.0011220733,"MEAN_MOTION_DOT":0.00033021,"MEAN_MOTION_DDOT":0}]
